     3.04           N: GNSS NAV DATA    M: MIXED            RINEX VERSION / TYPE
ssrcrin-15.6.1x                         20250101 091500 UTC PGM / RUN BY / DATE 
    18                                                      LEAP SECONDS        
                                                            END OF HEADER       
S23 2025 01 01 09 15 12 0.000000000000E+00 0.000000000000E+00 2.925140000000E+05
     3.866796400000E+04 0.000000000000E+00 0.000000000000E+00 6.300000000000E+01
     1.681330800000E+04 0.000000000000E+00 0.000000000000E+00 3.276700000000E+04
     0.000000000000E+00 0.000000000000E+00 0.000000000000E+00 2.510000000000E+02
S27 2025 01 01 09 15 44 4.097819328308E-07 4.092726157978E-11 2.925180000000E+05
     2.409894240000E+04-3.754375000000E-03 2.000000000000E-07 6.300000000000E+01
     3.455640088000E+04 3.381875000000E-03 8.750000000000E-08 3.276700000000E+04
    -2.661724000000E+02-3.610000000000E-02 1.437500000000E-06 1.280000000000E+02
S28 2025 01 01 09 15 44 3.157183527946E-07 2.273736754432E-11 2.925180000000E+05
     5.073938080000E+03-1.485625000000E-03 2.125000000000E-07 6.300000000000E+01
     4.184841616000E+04 1.385000000000E-03 6.250000000000E-08 3.276700000000E+04
     6.602800000000E+00 1.676000000000E-03-6.250000000000E-08 1.280000000000E+02
E16 2025 01 01 09 00 00-1.278374111280E-05-2.046363078989E-12 0.000000000000E+00
     1.050000000000E+02-1.534375000000E+01 3.261207270944E-09-8.239376356926E-01
    -6.966292858124E-07 2.371462760493E-04 7.087364792824E-06 5.440607469559E+03
     2.916000000000E+05-1.862645149231E-09 2.409568958299E+00-7.078051567078E-08
     9.661509611399E-01 1.950312500000E+02 2.250508697509E+00-5.377366846056E-09
    -6.943146352772E-10 5.170000000000E+02 2.347000000000E+03
     3.120000000000E+00 3.900000000000E+02-5.122274160385E-09-3.259629011154E-09
     2.925350000000E+05
E26 2025 01 01 09 00 00-1.666983589530E-04 1.099920154957E-11 0.000000000000E+00
     1.050000000000E+02 1.642500000000E+02 2.682254583813E-09-2.723583690570E+00
     7.757917046547E-06 3.913507098332E-04 3.911554813385E-07 5.440606891632E+03
     2.916000000000E+05-2.980232238770E-08-1.776746288020E+00 2.607703208923E-08
     9.929961545042E-01 3.435625000000E+02-1.485171343942E+00-5.685236812933E-09
     3.764442518427E-10 2.580000000000E+02 2.347000000000E+03
     3.120000000000E+00 0.000000000000E+00-6.752088665962E-09 0.000000000000E+00
     2.925400000000E+05
S21 2025 01 01 09 15 44 0.000000000000E+00 0.000000000000E+00 2.925490000000E+05
     4.200468400000E+04 0.000000000000E+00 0.000000000000E+00 6.300000000000E+01
    -3.674932960000E+03 0.000000000000E+00 0.000000000000E+00 3.276700000000E+04
     0.000000000000E+00 0.000000000000E+00 0.000000000000E+00 5.200000000000E+01
S36 2025 01 01 09 14 40 0.000000000000E+00 0.000000000000E+00 2.925710000000E+05
     4.200368800000E+04 0.000000000000E+00 0.000000000000E+00 6.300000000000E+01
     3.674846960000E+03 0.000000000000E+00 0.000000000000E+00 3.276700000000E+04
     0.000000000000E+00 0.000000000000E+00 0.000000000000E+00 1.140000000000E+02
E16 2025 01 01 09 00 00-1.278601121157E-05-2.046363078989E-12 0.000000000000E+00
     1.050000000000E+02-1.534375000000E+01 3.261207270944E-09-8.239376356926E-01
    -6.966292858124E-07 2.371462760493E-04 7.087364792824E-06 5.440607469559E+03
     2.916000000000E+05-1.862645149231E-09 2.409568958299E+00-7.078051567078E-08
     9.661509611399E-01 1.950312500000E+02 2.250508697509E+00-5.377366846056E-09
    -6.943146352772E-10 2.580000000000E+02 2.347000000000E+03
     3.120000000000E+00 4.800000000000E+01-5.122274160385E-09 0.000000000000E+00
     2.925900000000E+05
S44 2025 01 01 09 16 48 8.419156074524E-07 0.000000000000E+00 2.925920000000E+05
     7.261673760000E+03-4.003750000000E-03 2.250000000000E-07 6.300000000000E+01
     4.148106384000E+04 3.303125000000E-03 2.000000000000E-07 3.276700000000E+04
    -1.866602400000E+03 3.444000000000E-02 4.937500000000E-06 6.000000000000E+01
S23 2025 01 01 09 17 04 0.000000000000E+00 0.000000000000E+00 2.926390000000E+05
     3.866796400000E+04 0.000000000000E+00 0.000000000000E+00 6.300000000000E+01
     1.681330800000E+04 0.000000000000E+00 0.000000000000E+00 3.276700000000E+04
     0.000000000000E+00 0.000000000000E+00 0.000000000000E+00 2.520000000000E+02
R20 2025 01 01 09 15 00-1.240735873580E-04-0.000000000000E+00 2.926200000000E+05
    -9.309439453125E+03 3.162832260132E-01 0.000000000000E+00 0.000000000000E+00
     1.488071435547E+04-2.520432472229E+00-1.862645149231E-09 2.000000000000E+00
     1.850524072266E+04 2.191318511963E+00-1.862645149231E-09 0.000000000000E+00
S36 2025 01 01 09 17 20 0.000000000000E+00 0.000000000000E+00 2.926510000000E+05
     4.200368800000E+04 0.000000000000E+00 0.000000000000E+00 6.300000000000E+01
     3.674846960000E+03 0.000000000000E+00 0.000000000000E+00 3.276700000000E+04
     0.000000000000E+00 0.000000000000E+00 0.000000000000E+00 1.150000000000E+02
S44 2025 01 01 09 18 56 8.419156074524E-07 0.000000000000E+00 2.927120000000E+05
     7.261164960000E+03-3.945000000000E-03 2.250000000000E-07 6.300000000000E+01
     4.148149000000E+04 3.355000000000E-03 2.000000000000E-07 3.276700000000E+04
    -1.862112400000E+03 3.570800000000E-02 4.937500000000E-06 6.000000000000E+01
S21 2025 01 01 09 18 24 0.000000000000E+00 0.000000000000E+00 2.927140000000E+05
     4.200468400000E+04 0.000000000000E+00 0.000000000000E+00 6.300000000000E+01
    -3.674932960000E+03 0.000000000000E+00 0.000000000000E+00 3.276700000000E+04
     0.000000000000E+00 0.000000000000E+00 0.000000000000E+00 5.300000000000E+01
S23 2025 01 01 09 19 12 0.000000000000E+00 0.000000000000E+00 2.927640000000E+05
     3.866796400000E+04 0.000000000000E+00 0.000000000000E+00 6.300000000000E+01
     1.681330800000E+04 0.000000000000E+00 0.000000000000E+00 3.276700000000E+04
     0.000000000000E+00 0.000000000000E+00 0.000000000000E+00 2.530000000000E+02
S27 2025 01 01 09 20 00 4.200264811516E-07 3.637978807092E-11 2.927760000000E+05
     2.409798784000E+04-3.560000000000E-03 2.125000000000E-07 6.300000000000E+01
     3.455726952000E+04 3.524375000000E-03 7.500000000000E-08 3.276700000000E+04
    -2.753668000000E+02-3.573600000000E-02 1.500000000000E-06 1.290000000000E+02
S28 2025 01 01 09 20 00 3.213062882423E-07 1.818989403546E-11 2.927760000000E+05
     5.073564720000E+03-1.376875000000E-03 2.250000000000E-07 6.300000000000E+01
     4.184877280000E+04 1.579375000000E-03 5.000000000000E-08 3.276700000000E+04
     7.030000000000E+00 1.664000000000E-03-6.250000000000E-08 1.290000000000E+02
S36 2025 01 01 09 20 00 0.000000000000E+00 0.000000000000E+00 2.928030000000E+05
     4.200368800000E+04 0.000000000000E+00 0.000000000000E+00 6.300000000000E+01
     3.674846960000E+03 0.000000000000E+00 0.000000000000E+00 3.276700000000E+04
     0.000000000000E+00 0.000000000000E+00 0.000000000000E+00 1.160000000000E+02
S44 2025 01 01 09 20 00 8.419156074524E-07 0.000000000000E+00 2.928320000000E+05
     7.260913440000E+03-3.915000000000E-03 2.250000000000E-07 6.300000000000E+01
     4.148170560000E+04 3.380625000000E-03 2.000000000000E-07 3.276700000000E+04
    -1.859806800000E+03 3.634400000000E-02 4.937500000000E-06 6.000000000000E+01
E25 2025 01 01 09 10 00 1.283641904593E-05 3.694822225953E-13 0.000000000000E+00
     1.060000000000E+02-1.434375000000E+01 3.284422523667E-09 7.339330359883E-01
    -6.128102540970E-07 2.110275672749E-04 6.927177309990E-06 5.440600448608E+03
     2.922000000000E+05-5.029141902924E-08 2.413685830675E+00-2.980232238770E-08
     9.642541240033E-01 1.956875000000E+02 3.861161054113E-01-5.385938631677E-09
    -6.743138021622E-10 5.170000000000E+02 2.347000000000E+03
     3.120000000000E+00 0.000000000000E+00 2.328306436539E-10 1.164153218269E-09
     2.928650000000E+05
E08 2025 01 01 09 10 00-3.933108528145E-04-6.210143510543E-12 0.000000000000E+00
     1.060000000000E+02-1.758437500000E+02 2.699040997320E-09 9.990596295637E-01
    -8.037313818932E-06 1.744696637616E-04 1.189485192299E-05 5.440624795914E+03
     2.922000000000E+05-1.303851604462E-08 3.141287872163E-01 5.587935447693E-08
     9.694210175337E-01 8.940625000000E+01 6.557517621444E-01-5.187001773730E-09
     3.321566928024E-10 5.170000000000E+02 2.347000000000E+03
     3.120000000000E+00 0.000000000000E+00-5.820766091347E-09-5.820766091347E-09
     2.928650000000E+05
E16 2025 01 01 09 10 00-1.278496347368E-05-2.046363078989E-12 0.000000000000E+00
     1.060000000000E+02-1.603125000000E+01 3.266564636957E-09-7.494981903052E-01
    -7.487833499908E-07 2.372439485043E-04 7.113441824913E-06 5.440607666016E+03
     2.922000000000E+05 1.303851604462E-08 2.409565810099E+00-6.891787052155E-08
     9.661505632261E-01 1.946875000000E+02 2.250454951362E+00-5.382724212069E-09
    -7.018149476953E-10 5.170000000000E+02 2.347000000000E+03
     3.120000000000E+00 3.900000000000E+02-5.122274160385E-09-3.259629011154E-09
     2.928650000000E+05
E07 2025 01 01 09 10 00-1.612494816072E-04-1.918465386552E-12 0.000000000000E+00
     1.060000000000E+02-1.584062500000E+02 2.873333971607E-09 1.188184167657E+00
    -7.247552275658E-06 1.261080615222E-04 1.111999154091E-05 5.440616790771E+03
     2.922000000000E+05 6.146728992462E-08 3.133506932741E-01-1.862645149231E-09
     9.636239062093E-01 1.030625000000E+02-3.220852007357E-01-5.253790270024E-09
     2.825117677491E-10 5.170000000000E+02 2.347000000000E+03
     3.120000000000E+00 0.000000000000E+00 3.026798367500E-09 4.190951585770E-09
     2.928650000000E+05
